[{"OBJECT_NAME":"NETSAT-1","OBJECT_ID":"2020-068W","EPOCH":"2026-03-09T22:42:38.711232","MEAN_MOTION":15.32042482,"ECCENTRICITY":0.00057337,"INCLINATION":97.8751,"RA_OF_ASC_NODE":63.2583,"ARG_OF_PERICENTER":18.5877,"MEAN_ANOMALY":341.5572,"EPHEMERIS_TYPE":0,"CLASSIFICATION_TYPE":"U","NORAD_CAT_ID":46506,"ELEMENT_SET_NO":999,"REV_AT_EPOCH":30009,"BSTAR":0.00059222329,"MEAN_MOTION_DOT":0.00018269,"MEAN_MOTION_DDOT":0},{"OBJECT_NAME":"TRANSPORTER-11 OBJECT A","OBJECT_ID":"2024-149A","EPOCH":"2026-03-09T17:54:54.302112","MEAN_MOTION":15.31141332,"ECCENTRICITY":0.00031096,"INCLINATION":97.378,"RA_OF_ASC_NODE":149.0949,"ARG_OF_PERICENTER":191.001,"MEAN_ANOMALY":169.1164,"EPHEMERIS_TYPE":0,"CLASSIFICATION_TYPE":"U","NORAD_CAT_ID":60468,"ELEMENT_SET_NO":999,"REV_AT_EPOCH":8683,"BSTAR":0.00036053677,"MEAN_MOTION_DOT":0.00010774,"MEAN_MOTION_DDOT":0}]
